"{\n    \"CCSDS_OMM_VERS\": \"2.0\",\n    \"COMMENT\": \"GENERATED VIA SPACE-TRACK.ORG API\",\n    \"CREATION_DATE\": \"2025-08-31T11:35:43\",\n    \"ORIGINATOR\": \"18 SPCS\",\n    \"OBJECT_NAME\": \"NAVSTAR 56 (USA 180)\",\n    \"OBJECT_ID\": \"2004-045A\",\n    \"CENTER_NAME\": \"EARTH\",\n    \"REF_FRAME\": \"TEME\",\n    \"TIME_SYSTEM\": \"UTC\",\n    \"MEAN_ELEMENT_THEORY\": \"SGP4\",\n    \"EPOCH\": \"2025-08-31T03:01:28.790688\",\n    \"MEAN_MOTION\": \"2.0056490947\",\n    \"ECCENTRICITY\": \"0.016706225\",\n    \"INCLINATION\": \"55.288763\",\n    \"RA_OF_ASC_NODE\": \"336.57449\",\n    \"ARG_OF_PERICENTER\": \"305.63567\",\n    \"MEAN_ANOMALY\": \"51.196884\",\n    \"EPHEMERIS_TYPE\": \"0\",\n    \"CLASSIFICATION_TYPE\": \"U\",\n    \"NORAD_CAT_ID\": \"28474\",\n    \"ELEMENT_SET_NO\": \"999\",\n    \"REV_AT_EPOCH\": \"15260\",\n    \"BSTAR\": \"0\",\n    \"MEAN_MOTION_DOT\": \"-0.000000957471\",\n    \"MEAN_MOTION_DDOT\": \"0\",\n    \"TLE_LINE0\": \"0 NAVSTAR 56 (USA 180)\",\n    \"TLE_LINE1\": \"1 28474U 04045A   25243.12602767 -.00000096  00000-0  00000-0 0  9991\",\n    \"TLE_LINE2\": \"2 28474  55.2888 336.5745 0167062 305.6357  51.1969  2.00564909152607\",\n    \"SEMIMAJOR_AXIS\": \"26560.233\",\n    \"PERIOD\": \"717.972\",\n    \"APOAPSIS\": \"20625.819\",\n    \"PERIAPSIS\": \"19738.376\",\n    \"OBJECT_TYPE\": \"PAYLOAD\",\n    \"DECAYED\": \"0\"\n}"